2025-155V               
1 64895U 25155V   26068.85787115  .00013705  00000+0  51002-3 0  9990
2 64895  97.4485  37.2490 0008035 152.8264 207.3397 15.27583301 65579
STARLINK-35588          
1 66424U 25259C   26068.84337046  .00030461  00000+0  11115-2 0  9996
2 66424  43.0007 273.5851 0002218 275.2153  84.8446 15.27589023 19519
